FENGYUN 1C DEB          
1 35120U 99025DKY 17345.80986007  .00001658  00000-0  10017-2 0  9995
2 35120  97.9951 202.2980 0167779  73.5846 288.3690 14.00893134509975
